0 QUETZSAT 1
1 37826U 11054A   13280.14561042 -.00000250  00000-0  10000-3 0  4801
2 37826 000.0475 050.5176 0002247 140.3002 160.5797 01.00271199  7601
0 QUETZSAT 1
1 37826U 11054A   13283.37826402 -.00000259  00000-0  10000-3 0  4813
2 37826 000.0416 047.5356 0002441 130.9170 259.8792 01.00272780  7647
0 QUETZSAT 1
1 37826U 11054A   13284.50803167 -.00000262  00000-0  10000-3 0  4827
2 37826 000.0451 046.8357 0002401 135.5433 303.7830 01.00272302  7651
0 QUETZSAT 1
1 37826U 11054A   13285.61628514 -.00000265  00000-0  10000-3 0  4835
2 37826 000.0511 050.2632 0002367 132.7796 343.1832 01.00271963  7668
0 QUETZSAT 1
1 37826U 11054A   13287.36519168 -.00000267  00000-0  10000-3 0  4846
2 37826 000.0538 051.1228 0002393 133.6294 252.8033 01.00271501  7689
0 QUETZSAT 1
1 37826U 11054A   13289.23212162 -.00000266  00000-0  10000-3 0  4858
2 37826 000.0574 053.2116 0002635 141.6806 196.5967 01.00271124  7709
0 QUETZSAT 1
1 37826U 11054A   13290.35162250 -.00000264  00000-0  10000-3 0  4864
2 37826 000.0592 053.5188 0002651 142.0523 240.0366 01.00270744  7716
0 QUETZSAT 1
1 37826U 11054A   13291.52997087 -.00000261  00000-0  10000-3 0  4876
2 37826 000.0608 054.4091 0002667 142.7752 303.7841 01.00270390  7728
0 QUETZSAT 1
1 37826U 11054A   13292.41811128 -.00000260  00000-0  10000-3 0  4886
2 37826 000.0637 059.0442 0003072 150.8652 251.6690 01.00271484  7730
